GLOBALSTAR M023         
1 25621U 99004A   25352.65629103 -.00000056  00000+0  26776-3 0  9999
2 25621  52.0083 211.7251 0009919 169.7155 225.2320 12.62510664239033
GLOBALSTAR M040         
1 25622U 99004B   25352.62018270 -.00000066  00000+0  21261-3 0  9999
2 25622  51.9896 216.2612 0001984  75.9406 302.5788 12.62025234238542
GLOBALSTAR M036         
1 25623U 99004C   25352.59150748 -.00000114  00000+0 -45394-3 0  9991
2 25623  51.9959 114.2613 0010868  47.9474 325.0269 11.86617936200876
GLOBALSTAR M038         
1 25624U 99004D   25352.53190485 -.00000070  00000+0  20940-3 0  9998
2 25624  51.9975 260.6762 0002672  70.9261 100.4752 12.32537482225104
GLOBALSTAR M022         
1 25649U 99012A   25352.60893817 -.00000076  00000+0  12799-3 0  9990
2 25649  52.0015 149.5545 0003169 155.9629 282.7005 12.02508284198565
GLOBALSTAR M041         
1 25650U 99012B   25352.47785305 -.00000080  00000+0  66652-4 0  9992
2 25650  52.0038  36.9808 0000831 333.1588  26.9205 11.96681250200347
GLOBALSTAR M046         
1 25651U 99012C   25352.48627190 -.00000193  00000+0 -11506-2 0  9993
2 25651  52.0055  93.2944 0001473 241.1310 201.4231 12.09415706205966
GLOBALSTAR M037         
1 25652U 99012D   25352.43213225 -.00000080  00000+0  13437-3 0  9999
2 25652  52.0026 342.9566 0001720 234.3640 281.7228 12.62458509234544
